{"type": "FeatureCollection", "features": [ {"type": "Feature", "properties": {"norad_id": 66859, "name": "STARLINK-35646", "group": "last-30-days", "lat": -38.20049003075774, "lon": -66.80049141426481, "alt_km": 387.3617227062414, "timestamp": "2025-12-23T16:57:11.062395+00:00", "meta": {"OBJECT_NAME": "STARLINK-35646", "OBJECT_ID": "2025-281M", "EPOCH": "2025-12-23T06:00:00.999648", "MEAN_MOTION": 15.62914956, "ECCENTRICITY": 7.484e-05, "INCLINATION": 43.0001, "RA_OF_ASC_NODE": 58.2977, "ARG_OF_PERICENTER": 272.4351, "MEAN_ANOMALY": 283.4202, "EPHEMERIS_TYPE": 0, "CLASSIFICATION_TYPE": "U", "NORAD_CAT_ID": 66859, "ELEMENT_SET_NO": 999, "REV_AT_EPOCH": 308, "BSTAR": -0.023929806, "MEAN_MOTION_DOT": -0.01960936, "MEAN_MOTION_DDOT": 0}, "tle": {"line1": "1 66859U 25281M   25357.25001157 -.01960936  00000+0 -23930-1 0  9998", "line2": "2 66859  43.0001  58.2977 0000748 272.4351 283.4202 15.62914956  3085"}}, "geometry": {"type": "Point", "coordinates": [-66.80049141426481, -38.20049003075774]}}, {"type": "Feature", "properties": {"norad_id": 66860, "name": "STARLINK-35987", "group": "last-30-days", "lat": -41.11069685856356, "lon": -54.96797173286978, "alt_km": 387.39115334852613, "timestamp": "2025-12-23T16:57:11.062405+00:00", "meta": {"OBJECT_NAME": "STARLINK-35987", "OBJECT_ID": "2025-281N", "EPOCH": "2025-12-23T06:00:00.999648", "MEAN_MOTION": 15.62907715, "ECCENTRICITY": 8.296e-05, "INCLINATION": 43.0001, "RA_OF_ASC_NODE": 58.274, "ARG_OF_PERICENTER": 278.612, "MEAN_ANOMALY": 286.8274, "EPHEMERIS_TYPE": 0, "CLASSIFICATION_TYPE": "U", "NORAD_CAT_ID": 66860, "ELEMENT_SET_NO": 999, "REV_AT_EPOCH": 308, "BSTAR": -0.023734137, "MEAN_MOTION_DOT": -0.01946378, "MEAN_MOTION_DDOT": 0}, "tle": {"line1": "1 66860U 25281N   25357.25001157 -.01946378  00000+0 -23734-1 0  9996", "line2": "2 66860  43.0001  58.2740 0000829 278.6120 286.8274 15.62907715  3088"}}, "geometry": {"type": "Point", "coordinates": [-54.96797173286978, -41.11069685856356]}}, {"type": "Feature", "properties": {"norad_id": 66861, "name": "STARLINK-35991", "group": "last-30-days", "lat": -39.507880667987436, "lon": -62.191032444639596, "alt_km": 387.36086129773594, "timestamp": "2025-12-23T16:57:11.062415+00:00", "meta": {"OBJECT_NAME": "STARLINK-35991", "OBJECT_ID": "2025-281P", "EPOCH": "2025-12-23T06:00:00.999648", "MEAN_MOTION": 15.62914712, "ECCENTRICITY": 8.992e-05, "INCLINATION": 43.0001, "RA_OF_ASC_NODE": 58.2885, "ARG_OF_PERICENTER": 279.0223, "MEAN_ANOMALY": 280.6678, "EPHEMERIS_TYPE": 0, "CLASSIFICATION_TYPE": "U", "NORAD_CAT_ID": 66861, "ELEMENT_SET_NO": 999, "REV_AT_EPOCH": 308, "BSTAR": -0.023943101, "MEAN_MOTION_DOT": -0.01961979, "MEAN_MOTION_DDOT": 0}, "tle": {"line1": "1 66861U 25281P   25357.25001157 -.01961979  00000+0 -23943-1 0  9993", "line2": "2 66861  43.0001  58.2885 0000899 279.0223 280.6678 15.62914712  3080"}}, "geometry": {"type": "Point", "coordinates": [-62.191032444639596, -39.507880667987436]}}, {"type": "Feature", "properties": {"norad_id": 66862, "name": "STARLINK-35974", "group": "last-30-days", "lat": -38.87703023219365, "lon": -64.51663497769012, "alt_km": 387.4510207080575, "timestamp": "2025-12-23T16:57:11.062425+00:00", "meta": {"OBJECT_NAME": "STARLINK-35974", "OBJECT_ID": "2025-281Q", "EPOCH": "2025-12-23T06:00:00.999648", "MEAN_MOTION": 15.62910889, "ECCENTRICITY": 6.797e-05, "INCLINATION": 43.0001, "RA_OF_ASC_NODE": 58.2931, "ARG_OF_PERICENTER": 276.8244, "MEAN_ANOMALY": 280.949, "EPHEMERIS_TYPE": 0, "CLASSIFICATION_TYPE": "U", "NORAD_CAT_ID": 66862, "ELEMENT_SET_NO": 999, "REV_AT_EPOCH": 297, "BSTAR": -0.023859928, "MEAN_MOTION_DOT": -0.01955574, "MEAN_MOTION_DDOT": 0}, "tle": {"line1": "1 66862U 25281Q   25357.25001157 -.01955574  00000+0 -23860-1 0  9996", "line2": "2 66862  43.0001  58.2931 0000679 276.8244 280.9490 15.62910889  2970"}}, "geometry": {"type": "Point", "coordinates": [-64.51663497769012, -38.87703023219365]}}, {"type": "Feature", "properties": {"norad_id": 66863, "name": "STARLINK-36134", "group": "last-30-days", "lat": -40.09241436154466, "lon": -59.81944236142336, "alt_km": 387.36084481954276, "timestamp": "2025-12-23T16:57:11.062435+00:00", "meta": {"OBJECT_NAME": "STARLINK-36134", "OBJECT_ID": "2025-281R", "EPOCH": "2025-12-23T06:00:00.999648", "MEAN_MOTION": 15.62910583, "ECCENTRICITY": 8.244e-05, "INCLINATION": 43, "RA_OF_ASC_NODE": 58.284, "ARG_OF_PERICENTER": 274.5288, "MEAN_ANOMALY": 287.0779, "EPHEMERIS_TYPE": 0, "CLASSIFICATION_TYPE": "U", "NORAD_CAT_ID": 66863, "ELEMENT_SET_NO": 999, "REV_AT_EPOCH": 308, "BSTAR": -0.023826887, "MEAN_MOTION_DOT": -0.01953266, "MEAN_MOTION_DDOT": 0}, "tle": {"line1": "1 66863U 25281R   25357.25001157 -.01953266  00000+0 -23827-1 0  9996", "line2": "2 66863  43.0000  58.2840 0000824 274.5288 287.0779 15.62910583  3086"}}, "geometry": {"type": "Point", "coordinates": [-59.81944236142336, -40.09241436154466]}}, {"type": "Feature", "properties": {"norad_id": 66864, "name": "STARLINK-36070", "group": "last-30-days", "lat": -40.62721200403619, "lon": -57.41157371048411, "alt_km": 387.3960178555071, "timestamp": "2025-12-23T16:57:11.062447+00:00", "meta": {"OBJECT_NAME": "STARLINK-36070", "OBJECT_ID": "2025-281S", "EPOCH": "2025-12-23T06:00:00.999648", "MEAN_MOTION": 15.62914682, "ECCENTRICITY": 7.835e-05, "INCLINATION": 43, "RA_OF_ASC_NODE": 58.2786, "ARG_OF_PERICENTER": 272.6612, "MEAN_ANOMALY": 290.8636, "EPHEMERIS_TYPE": 0, "CLASSIFICATION_TYPE": "U", "NORAD_CAT_ID": 66864, "ELEMENT_SET_NO": 999, "REV_AT_EPOCH": 311, "BSTAR": -0.023942968, "MEAN_MOTION_DOT": -0.01961889, "MEAN_MOTION_DDOT": 0}, "tle": {"line1": "1 66864U 25281S   25357.25001157 -.01961889  00000+0 -23943-1 0  9996", "line2": "2 66864  43.0000  58.2786 0000783 272.6612 290.8636 15.62914682  3112"}}, "geometry": {"type": "Point", "coordinates": [-57.41157371048411, -40.62721200403619]}}, {"type": "Feature", "properties": {"norad_id": 66865, "name": "STARLINK-36117", "group": "last-30-days", "lat": -41.541724012071676, "lon": -52.489094626142624, "alt_km": 387.3964548060885, "timestamp": "2025-12-23T16:57:11.062459+00:00", "meta": {"OBJECT_NAME": "STARLINK-36117", "OBJECT_ID": "2025-281T", "EPOCH": "2025-12-23T06:00:00.999648", "MEAN_MOTION": 15.62908894, "ECCENTRICITY": 8.45e-05, "INCLINATION": 43.0002, "RA_OF_ASC_NODE": 58.2697, "ARG_OF_PERICENTER": 280.0494, "MEAN_ANOMALY": 287.3063, "EPHEMERIS_TYPE": 0, "CLASSIFICATION_TYPE": "U", "NORAD_CAT_ID": 66865, "ELEMENT_SET_NO": 999, "REV_AT_EPOCH": 308, "BSTAR": -0.023754405, "MEAN_MOTION_DOT": -0.01947932, "MEAN_MOTION_DDOT": 0}, "tle": {"line1": "1 66865U 25281T   25357.25001157 -.01947932  00000+0 -23754-1 0  9990", "line2": "2 66865  43.0002  58.2697 0000845 280.0494 287.3063 15.62908894  3085"}}, "geometry": {"type": "Point", "coordinates": [-52.489094626142624, -41.541724012071676]}}, {"type": "Feature", "properties": {"norad_id": 66866, "name": "STARLINK-36126", "group": "last-30-days", "lat": -41.918831813490485, "lon": -49.978377010686316, "alt_km": 387.44660645811655, "timestamp": "2025-12-23T16:57:11.062469+00:00", "meta": {"OBJECT_NAME": "STARLINK-36126", "OBJECT_ID": "2025-281U", "EPOCH": "2025-12-23T06:00:00.999648", "MEAN_MOTION": 15.62915538, "ECCENTRICITY": 7.653e-05, "INCLINATION": 43.0003, "RA_OF_ASC_NODE": 58.2647, "ARG_OF_PERICENTER": 276.5317, "MEAN_ANOMALY": 292.7422, "EPHEMERIS_TYPE": 0, "CLASSIFICATION_TYPE": "U", "NORAD_CAT_ID": 66866, "ELEMENT_SET_NO": 999, "REV_AT_EPOCH": 311, "BSTAR": -0.023940753, "MEAN_MOTION_DOT": -0.01961776, "MEAN_MOTION_DDOT": 0}, "tle": {"line1": "1 66866U 25281U   25357.25001157 -.01961776  00000+0 -23941-1 0  9991", "line2": "2 66866  43.0003  58.2647 0000765 276.5317 292.7422 15.62915538  3113"}}, "geometry": {"type": "Point", "coordinates": [-49.978377010686316, -41.918831813490485]}}, {"type": "Feature", "properties": {"norad_id": 66867, "name": "STARLINK-36101", "group": "last-30-days", "lat": -42.24007294539567, "lon": -47.440988765397826, "alt_km": 387.44871912870076, "timestamp": "2025-12-23T16:57:11.062480+00:00", "meta": {"OBJECT_NAME": "STARLINK-36101", "OBJECT_ID": "2025-281V", "EPOCH": "2025-12-23T06:00:00.999648", "MEAN_MOTION": 15.62907944, "ECCENTRICITY": 7.752e-05, "INCLINATION": 43.0002, "RA_OF_ASC_NODE": 58.2599, "ARG_OF_PERICENTER": 278.3888, "MEAN_ANOMALY": 292.8066, "EPHEMERIS_TYPE": 0, "CLASSIFICATION_TYPE": "U", "NORAD_CAT_ID": 66867, "ELEMENT_SET_NO": 999, "REV_AT_EPOCH": 291, "BSTAR": -0.023827655, "MEAN_MOTION_DOT": -0.01953108, "MEAN_MOTION_DDOT": 0}, "tle": {"line1": "1 66867U 25281V   25357.25001157 -.01953108  00000+0 -23828-1 0  9996", "line2": "2 66867  43.0002  58.2599 0000775 278.3888 292.8066 15.62907944  2917"}}, "geometry": {"type": "Point", "coordinates": [-47.440988765397826, -42.24007294539567]}}, {"type": "Feature", "properties": {"norad_id": 66868, "name": "STARLINK-36108", "group": "last-30-days", "lat": -42.5047640079325, "lon": -44.87902502961427, "alt_km": 387.3716275299894, "timestamp": "2025-12-23T16:57:11.062489+00:00", "meta": {"OBJECT_NAME": "STARLINK-36108", "OBJECT_ID": "2025-281W", "EPOCH": "2025-12-23T06:00:00.999648", "MEAN_MOTION": 15.62908603, "ECCENTRICITY": 8.754e-05, "INCLINATION": 43.0001, "RA_OF_ASC_NODE": 58.2546, "ARG_OF_PERICENTER": 276.6056, "MEAN_ANOMALY": 296.5072, "EPHEMERIS_TYPE": 0, "CLASSIFICATION_TYPE": "U", "NORAD_CAT_ID": 66868, "ELEMENT_SET_NO": 999, "REV_AT_EPOCH": 291, "BSTAR": -0.023842175, "MEAN_MOTION_DOT": -0.01954268, "MEAN_MOTION_DDOT": 0}, "tle": {"line1": "1 66868U 25281W   25357.25001157 -.01954268  00000+0 -23842-1 0  9991", "line2": "2 66868  43.0001  58.2546 0000875 276.6056 296.5072 15.62908603  2919"}}, "geometry": {"type": "Point", "coordinates": [-44.87902502961427, -42.5047640079325]}}]}